FENGYUN 1C DEB          
1 37045U 99025EED 17345.28673888  .00001385  00000-0  85234-3 0  9996
2 37045  98.3281   5.1813 0137721 169.1997 191.2181 14.02414837507057
